DMSP 5D-3 F16 (USA 172) 
1 28054U 03048A   26168.59571975 -.00000026  00000+0  10143-4 0  9996
2 28054  98.9890 192.4268 0007772 139.1556 316.0535 14.14483205169549
METEOSAT-9 (MSG-2)      
1 28912U 05049B   26167.83646461  .00000116  00000+0  00000+0 0  9996
2 28912   9.3610  54.1722 0001615 343.6223 214.0712  1.00271908  6999
DMSP 5D-3 F17 (USA 191) 
1 29522U 06050A   26168.59396407 -.00000012  00000+0  16059-4 0  9995
2 29522  98.7378 175.1558 0011155  58.3497 301.8763 14.14993092 12480
FENGYUN 3A              
1 32958U 08026A   26168.47023153  .00000052  00000+0  45131-4 0  9995
2 32958  98.6883 109.2981 0009604 122.9237 237.2865 14.19571203935447
GOES 14                 
1 35491U 09033A   26167.85555134 -.00000294  00000+0  00000+0 0  9999
2 35491   1.6897  83.0444 0001741  11.3150 260.7785  1.00110888  6583
DMSP 5D-3 F18 (USA 210) 
1 35951U 09057A   26168.56537059  .00000211  00000+0  13254-3 0  9998
2 35951  98.9037 149.3336 0009900 248.3098 111.7021 14.14896929859640
EWS-G2 (GOES 15)        
1 36411U 10008A   26167.94125012  .00000014  00000+0  00000+0 0  9993
2 36411   1.2775  82.8648 0005411  42.2478 182.6632  1.00275936 59637
COMS 1                  
1 36744U 10032A   26168.19955597  .00000058  00000+0  00000+0 0  9994
2 36744   4.8056  75.3545 0011491  11.7607 323.5797  0.99162519 51088
FENGYUN 3B              
1 37214U 10059A   26168.59502294  .00000065  00000+0  56950-4 0  9990
2 37214  98.9616 214.6116 0021893 182.7545 280.9844 14.14841581807483
SUOMI NPP               
1 37849U 11061A   26168.55200164  .00000047  00000+0  43304-4 0  9994
2 37849  98.7953 109.4256 0001513   5.9247 354.1946 14.19517405758490
METEOSAT-10 (MSG-3)     
1 38552U 12035B   26167.91989407 -.00000009  00000+0  00000+0 0  9991
2 38552   4.6715  61.0232 0001486 328.8582 206.8187  1.00276823 50856
METOP-B                 
1 38771U 12049A   26168.54158154  .00000083  00000+0  58015-4 0  9991
2 38771  98.6505 220.0337 0002217  18.9179 341.2081 14.21432835713312
INSAT-3D                
1 39216U 13038B   26167.85312466 -.00000343  00000+0  00000+0 0  9992
2 39216   1.9257  82.5426 0000562 311.1591 308.0485  1.00269278 47079
FENGYUN 3C              
1 39260U 13052A   26168.60920267  .00000068  00000+0  55493-4 0  9999
2 39260  98.4987 142.4646 0015239  26.4572 333.7378 14.15755084658621
METEOR-M 2              
1 40069U 14037A   26168.56794385  .00000017  00000+0  26825-4 0  9998
2 40069  98.5112 144.2929 0006750  43.4144 316.7565 14.21460961619379
HIMAWARI-8              
1 40267U 14060A   26167.85529134 -.00000278  00000+0  00000+0 0  9995
2 40267   0.0159   0.9040 0000992  88.3558 264.4292  1.00271684 42752
FENGYUN 2G              
1 40367U 14090A   26168.64733784 -.00000310  00000+0  00000+0 0  9992
2 40367   5.6406  72.8090 0004011 158.0660   7.7497  1.00271870 42007
METEOSAT-11 (MSG-4)     
1 40732U 15034A   26167.75807976  .00000061  00000+0  00000+0 0  9995
2 40732   3.2002  71.1126 0001751  11.1942 105.2805  1.00280240  7213
ELEKTRO-L 2             
1 41105U 15074A   26167.63786162 -.00000124  00000+0  00000+0 0  9995
2 41105   6.6931  70.5258 0000972 242.2635 167.2330  1.00270425 38506
SENTINEL-3A             
1 41335U 16011A   26168.56720246  .00000088  00000+0  54569-4 0  9998
2 41335  98.6250 235.9454 0001407 101.9837 258.1501 14.26740096538110
INSAT-3DR               
1 41752U 16054A   26167.94998809 -.00000080  00000+0  00000+0 0  9990
2 41752   0.1060  86.3723 0010603 187.4701  47.3357  1.00270883 35810
HIMAWARI-9              
1 41836U 16064A   26167.85529134 -.00000278  00000+0  00000+0 0  9994
2 41836   0.0194 277.6486 0000894 213.4845 222.6531  1.00270780 35202
GOES 16                 
1 41866U 16071A   26168.33738412 -.00000095  00000+0  00000+0 0  9997
2 41866   0.3422  85.5184 0000230 311.3635 245.4756  1.00271023 35104
FENGYUN 4A              
1 41882U 16077A   26168.65560391 -.00000363  00000+0  00000+0 0  9993
2 41882   2.3237  80.2685 0008714 153.4639  31.9419  1.00268188 34932
CYGFM05                 
1 41884U 16078A   26168.56422149  .00019034  00000+0  25794-3 0  9999
2 41884  34.9565 258.0935 0007005 155.1946 204.9117 15.56686182528810
CYGFM04                 
1 41885U 16078B   26168.53365447  .00023569  00000+0  26530-3 0  9991
2 41885  34.9311 225.9685 0006747 198.5401 161.5079 15.61530426529051
CYGFM02                 
1 41886U 16078C   26168.53367601  .00027107  00000+0  27097-3 0  9997
2 41886  34.9390 220.4939 0007769 199.5293 160.5137 15.64521931529223
CYGFM01                 
1 41887U 16078D   26168.55277265  .00019769  00000+0  26113-3 0  9999
2 41887  34.9394 259.2233 0006773 148.3282 211.7851 15.57364134528761
CYGFM08                 
1 41888U 16078E   26168.57561981  .00022448  00000+0  26759-3 0  9997
2 41888  34.9420 238.6407 0008409 181.0555 179.0154 15.60037208529037
CYGFM07                 
1 41890U 16078G   26168.53473554  .00021393  00000+0  25426-3 0  9992
2 41890  34.9433 227.2545 0007143 197.5321 162.5158 15.60133044529056
CYGFM03                 
1 41891U 16078H   26168.56973260  .00022653  00000+0  26922-3 0  9997
2 41891  34.9388 228.9588 0006561 185.7876 174.2774 15.60130523529039
